{"type": "FeatureCollection", "features": [{"type": "Feature", "properties": {"norad_id": 2807, "name": "OPS 7218 (TRANSIT 16)", "group": "nnss", "lat": -19.21954269474839, "lon": 174.42869142842346, "alt_km": 1066.8864689755765, "timestamp": "2025-12-03T17:47:50.986177+00:00", "meta": {"OBJECT_NAME": "OPS 7218 (TRANSIT 16)", "OBJECT_ID": "1967-048A", "EPOCH": "2025-12-03T12:06:54.103104", "MEAN_MOTION": 13.50719477, "ECCENTRICITY": 0.0021476, "INCLINATION": 89.6735, "RA_OF_ASC_NODE": 354.3226, "ARG_OF_PERICENTER": 138.9624, "MEAN_ANOMALY": 349.3026, "EPHEMERIS_TYPE": 0, "CLASSIFICATION_TYPE": "U", "NORAD_CAT_ID": 2807, "ELEMENT_SET_NO": 999, "REV_AT_EPOCH": 88151, "BSTAR": 0.00022718, "MEAN_MOTION_DOT": 1.57e-06, "MEAN_MOTION_DDOT": 0}, "tle": {"line1": "1 02807U 67048A   25337.50479286  .00000157  00000+0  22718-3 0  9998", "line2": "2 02807  89.6735 354.3226 0021476 138.9624 349.3026 13.50719477881519"}}, "geometry": {"type": "Point", "coordinates": [174.42869142842346, -19.21954269474839]}}, {"type": "Feature", "properties": {"norad_id": 2965, "name": "OPS 4947 (TRANSIT 17)", "group": "nnss", "lat": 5.386937445901588, "lon": -154.9491459225515, "alt_km": 1059.9383925340544, "timestamp": "2025-12-03T17:47:50.986199+00:00", "meta": {"OBJECT_NAME": "OPS 4947 (TRANSIT 17)", "OBJECT_ID": "1967-092A", "EPOCH": "2025-12-03T09:53:28.687776", "MEAN_MOTION": 13.53450021, "ECCENTRICITY": 0.0045778, "INCLINATION": 89.2506, "RA_OF_ASC_NODE": 25.1466, "ARG_OF_PERICENTER": 262.5485, "MEAN_ANOMALY": 108.3355, "EPHEMERIS_TYPE": 0, "CLASSIFICATION_TYPE": "U", "NORAD_CAT_ID": 2965, "ELEMENT_SET_NO": 999, "REV_AT_EPOCH": 86971, "BSTAR": 0.00024869, "MEAN_MOTION_DOT": 1.79e-06, "MEAN_MOTION_DDOT": 0}, "tle": {"line1": "1 02965U 67092A   25337.41213759  .00000179  00000+0  24869-3 0  9996", "line2": "2 02965  89.2506  25.1466 0045778 262.5485 108.3355 13.53450021869711"}}, "geometry": {"type": "Point", "coordinates": [-154.9491459225515, 5.386937445901588]}}, {"type": "Feature", "properties": {"norad_id": 3133, "name": "OPS 7034 (TRANSIT 18)", "group": "nnss", "lat": 25.055959268538277, "lon": -86.39882792431594, "alt_km": 1119.3052914855234, "timestamp": "2025-12-03T17:47:50.986213+00:00", "meta": {"OBJECT_NAME": "OPS 7034 (TRANSIT 18)", "OBJECT_ID": "1968-012A", "EPOCH": "2025-12-03T09:21:57.300192", "MEAN_MOTION": 13.51562445, "ECCENTRICITY": 0.0072979, "INCLINATION": 90.0269, "RA_OF_ASC_NODE": 273.6128, "ARG_OF_PERICENTER": 196.3448, "MEAN_ANOMALY": 280.6016, "EPHEMERIS_TYPE": 0, "CLASSIFICATION_TYPE": "U", "NORAD_CAT_ID": 3133, "ELEMENT_SET_NO": 999, "REV_AT_EPOCH": 56792, "BSTAR": 0.00017779, "MEAN_MOTION_DOT": 1.27e-06, "MEAN_MOTION_DDOT": 0}, "tle": {"line1": "1 03133U 68012A   25337.39024653  .00000127  00000+0  17779-3 0  9992", "line2": "2 03133  90.0269 273.6128 0072979 196.3448 280.6016 13.51562445567924"}}, "geometry": {"type": "Point", "coordinates": [-86.39882792431594, 25.055959268538277]}}, {"type": "Feature", "properties": {"norad_id": 4507, "name": "NNSS 19 (TRANSIT 19)", "group": "nnss", "lat": 6.18847476036395, "lon": -125.47313921353901, "alt_km": 980.9164165618567, "timestamp": "2025-12-03T17:47:50.986224+00:00", "meta": {"OBJECT_NAME": "NNSS 19 (TRANSIT 19)", "OBJECT_ID": "1970-067A", "EPOCH": "2025-12-03T10:39:33.759936", "MEAN_MOTION": 13.51311161, "ECCENTRICITY": 0.0171187, "INCLINATION": 90.0056, "RA_OF_ASC_NODE": 234.5273, "ARG_OF_PERICENTER": 320.5051, "MEAN_ANOMALY": 38.3724, "EPHEMERIS_TYPE": 0, "CLASSIFICATION_TYPE": "U", "NORAD_CAT_ID": 4507, "ELEMENT_SET_NO": 999, "REV_AT_EPOCH": 72096, "BSTAR": 0.00028364, "MEAN_MOTION_DOT": 2.1e-06, "MEAN_MOTION_DDOT": 0}, "tle": {"line1": "1 04507U 70067A   25337.44414074  .00000210  00000+0  28364-3 0  9992", "line2": "2 04507  90.0056 234.5273 0171187 320.5051  38.3724 13.51311161720969"}}, "geometry": {"type": "Point", "coordinates": [-125.47313921353901, 6.18847476036395]}}, {"type": "Feature", "properties": {"norad_id": 6909, "name": "NNSS 20 (TRANSIT 20)", "group": "nnss", "lat": 31.918892225613543, "lon": 75.09921247221726, "alt_km": 907.4693224037137, "timestamp": "2025-12-03T17:47:50.986235+00:00", "meta": {"OBJECT_NAME": "NNSS 20 (TRANSIT 20)", "OBJECT_ID": "1973-081A", "EPOCH": "2025-12-03T11:50:21.755040", "MEAN_MOTION": 13.71427816, "ECCENTRICITY": 0.0156481, "INCLINATION": 89.8557, "RA_OF_ASC_NODE": 255.1929, "ARG_OF_PERICENTER": 105.6968, "MEAN_ANOMALY": 256.1519, "EPHEMERIS_TYPE": 0, "CLASSIFICATION_TYPE": "U", "NORAD_CAT_ID": 6909, "ELEMENT_SET_NO": 999, "REV_AT_EPOCH": 80234, "BSTAR": 0.00028959, "MEAN_MOTION_DOT": 2.96e-06, "MEAN_MOTION_DDOT": 0}, "tle": {"line1": "1 06909U 73081A   25337.49330735  .00000296  00000+0  28959-3 0  9999", "line2": "2 06909  89.8557 255.1929 0156481 105.6968 256.1519 13.71427816802347"}}, "geometry": {"type": "Point", "coordinates": [75.09921247221726, 31.918892225613543]}}, {"type": "Feature", "properties": {"norad_id": 10457, "name": "TRANSAT", "group": "nnss", "lat": 86.30680825465853, "lon": 84.37732793196672, "alt_km": 1080.3830742369219, "timestamp": "2025-12-03T17:47:50.986246+00:00", "meta": {"OBJECT_NAME": "TRANSAT", "OBJECT_ID": "1977-106A", "EPOCH": "2025-12-03T08:47:40.611264", "MEAN_MOTION": 13.48941256, "ECCENTRICITY": 0.0024549, "INCLINATION": 89.6482, "RA_OF_ASC_NODE": 78.9288, "ARG_OF_PERICENTER": 217.1657, "MEAN_ANOMALY": 208.8093, "EPHEMERIS_TYPE": 0, "CLASSIFICATION_TYPE": "U", "NORAD_CAT_ID": 10457, "ELEMENT_SET_NO": 999, "REV_AT_EPOCH": 36617, "BSTAR": 0.00014772, "MEAN_MOTION_DOT": 1.03e-06, "MEAN_MOTION_DDOT": 0}, "tle": {"line1": "1 10457U 77106A   25337.36644226  .00000103  00000+0  14772-3 0  9998", "line2": "2 10457  89.6482  78.9288 0024549 217.1657 208.8093 13.48941256366177"}}, "geometry": {"type": "Point", "coordinates": [84.37732793196672, 86.30680825465853]}}, {"type": "Feature", "properties": {"norad_id": 12458, "name": "NOVA 1", "group": "nnss", "lat": 81.7520442697372, "lon": -89.5079414910832, "alt_km": 1154.4632662910262, "timestamp": "2025-12-03T17:47:50.986257+00:00", "meta": {"OBJECT_NAME": "NOVA 1", "OBJECT_ID": "1981-044A", "EPOCH": "2025-12-03T08:32:59.363232", "MEAN_MOTION": 13.2327685, "ECCENTRICITY": 0.0015599, "INCLINATION": 89.8522, "RA_OF_ASC_NODE": 91.5178, "ARG_OF_PERICENTER": 127.0923, "MEAN_ANOMALY": 296.7011, "EPHEMERIS_TYPE": 0, "CLASSIFICATION_TYPE": "U", "NORAD_CAT_ID": 12458, "ELEMENT_SET_NO": 999, "REV_AT_EPOCH": 15062, "BSTAR": 0.00015558, "MEAN_MOTION_DOT": 7.5e-07, "MEAN_MOTION_DDOT": 0}, "tle": {"line1": "1 12458U 81044A   25337.35624263  .00000075  00000+0  15558-3 0  9996", "line2": "2 12458  89.8522  91.5178 0015599 127.0923 296.7011 13.23276850150627"}}, "geometry": {"type": "Point", "coordinates": [-89.5079414910832, 81.7520442697372]}}, {"type": "Feature", "properties": {"norad_id": 15362, "name": "NOVA 3", "group": "nnss", "lat": -21.654461335236267, "lon": 80.47739829213414, "alt_km": 1156.0514954411638, "timestamp": "2025-12-03T17:47:50.986267+00:00", "meta": {"OBJECT_NAME": "NOVA 3", "OBJECT_ID": "1984-110A", "EPOCH": "2025-12-03T12:30:59.346144", "MEAN_MOTION": 13.23042704, "ECCENTRICITY": 0.0031242, "INCLINATION": 90.1226, "RA_OF_ASC_NODE": 80.4261, "ARG_OF_PERICENTER": 357.8421, "MEAN_ANOMALY": 13.2842, "EPHEMERIS_TYPE": 0, "CLASSIFICATION_TYPE": "U", "NORAD_CAT_ID": 15362, "ELEMENT_SET_NO": 999, "REV_AT_EPOCH": 98577, "BSTAR": 7.1265e-05, "MEAN_MOTION_DOT": 3.8e-07, "MEAN_MOTION_DDOT": 0}, "tle": {"line1": "1 15362U 84110A   25337.52152021  .00000038  00000+0  71265-4 0  9994", "line2": "2 15362  90.1226  80.4261 0031242 357.8421  13.2842 13.23042704985774"}}, "geometry": {"type": "Point", "coordinates": [80.47739829213414, -21.654461335236267]}}, {"type": "Feature", "properties": {"norad_id": 15935, "name": "OSCAR 30", "group": "nnss", "lat": -4.175175003757913, "lon": 99.71204963157086, "alt_km": 1175.3606090898247, "timestamp": "2025-12-03T17:47:50.986277+00:00", "meta": {"OBJECT_NAME": "OSCAR 30", "OBJECT_ID": "1985-066A", "EPOCH": "2025-12-03T09:10:03.206784", "MEAN_MOTION": 13.36075894, "ECCENTRICITY": 0.016936, "INCLINATION": 90.1646, "RA_OF_ASC_NODE": 99.6942, "ARG_OF_PERICENTER": 110.0242, "MEAN_ANOMALY": 319.1865, "EPHEMERIS_TYPE": 0, "CLASSIFICATION_TYPE": "U", "NORAD_CAT_ID": 15935, "ELEMENT_SET_NO": 999, "REV_AT_EPOCH": 96328, "BSTAR": 0.00022149, "MEAN_MOTION_DOT": 1.33e-06, "MEAN_MOTION_DDOT": 0}, "tle": {"line1": "1 15935U 85066A   25337.38198156  .00000133  00000+0  22149-3 0  9996", "line2": "2 15935  90.1646  99.6942 0169360 110.0242 319.1865 13.36075894963282"}}, "geometry": {"type": "Point", "coordinates": [99.71204963157086, -4.175175003757913]}}, {"type": "Feature", "properties": {"norad_id": 15936, "name": "OSCAR 24", "group": "nnss", "lat": 76.43911005206711, "lon": 91.40523142870941, "alt_km": 1017.1246285547086, "timestamp": "2025-12-03T17:47:50.986287+00:00", "meta": {"OBJECT_NAME": "OSCAR 24", "OBJECT_ID": "1985-066B", "EPOCH": "2025-12-03T08:43:31.664352", "MEAN_MOTION": 13.35933518, "ECCENTRICITY": 0.0170371, "INCLINATION": 90.1786, "RA_OF_ASC_NODE": 92.1395, "ARG_OF_PERICENTER": 116.5141, "MEAN_ANOMALY": 304.2883, "EPHEMERIS_TYPE": 0, "CLASSIFICATION_TYPE": "U", "NORAD_CAT_ID": 15936, "ELEMENT_SET_NO": 999, "REV_AT_EPOCH": 96518, "BSTAR": 0.00015688, "MEAN_MOTION_DOT": 9.7e-07, "MEAN_MOTION_DDOT": 0}, "tle": {"line1": "1 15936U 85066B   25337.36356093  .00000097  00000+0  15688-3 0  9990", "line2": "2 15936  90.1786  92.1395 0170371 116.5141 304.2883 13.35933518965182"}}, "geometry": {"type": "Point", "coordinates": [91.40523142870941, 76.43911005206711]}}]}